STARLINK-1482
1 25773C 20038AV  21325.16284004  .00005887  00000-0  39447-3 0  3258
2 25773  53.0550  42.5019 0001317  75.3897 354.4043 15.06388913    16
